#dP2024  1 11  0  0  0.00000000      96 __u+U IGS20 FIT  IAC
## 2296 345600.00000000   900.00000000 60320 0.0000000000000
+  119   C06C07C08C09C10C11C12C13C14C16C19C20C21C22C23C24C25
+        C26C27C28C29C30C32C33C34C35C36C37C38C39C40C41C42C43
+        C44C45C46E02E03E04E05E07E08E09E10E11E12E13E14E15E18
+        E19E21E24E25E26E27E30E31E33E34E36G01G02G03G04G05G06
+        G07G08G09G10G11G12G13G14G15G16G17G18G19G20G21G22G23
+        G24G25G26G28G29G30G31G32J02J03J04R01R02R03R04R05R07
+        R08R09R11R12R13R14R15R16R17R18R19R20R21R22R24R25R26
++         9  8  7  8  8  7  6  9  9  0  5  5  6  6  5  5  6
++         6  6  8  7  5  7  5  7  6  7  6  8  7  9  6  6  6
++         6  6  7  5  5  6  6  6  5  4  6  6  6  6  5  5  5
++         6  5  6  4  5  5  5  6  5  5  6  6  5  5  5  5  5
++         5  6  4  5  5  5  5  6  5  5  6  6  5  4  5  5  5
++         0  5  4  5  6  5  5  5  8  0  7  8  6  7  5  6  5
++         4  6  6  6  7  5  7  5  6  6  7  8  4  6  7  7  8
%c M  cc GPS ccc cccc cccc cccc cccc ccccc ccccc ccccc ccccc
%c cc cc ccc ccc cccc cccc cccc cccc ccccc ccccc ccccc ccccc
%f  0.0000000  0.000000000  0.00000000000  0.000000000000000
%f  0.0000000  0.000000000  0.00000000000  0.000000000000000
%i    0    0    0    0      0      0      0      0         0
%i    0    0    0    0      0      0      0      0         0
/* INFORMATION & ANALYSIS CENTER (IAC)      ULTRA-RAPID DATA
/* S/V CLOCKS ARE ALIGNED TO GNSS TIME                      
/* G:C1WC2W R:C1PC2P E:C1XC5X C:C2IC6I J:C1CC2S             
/* PCV:IGS20_2290 OL/AL:FES2004  NONE     YN ORB:CoN CLK:CoN
*  2024 01 11 19 45  0.00000000
PC06 -17531.433550  37470.178359  -8882.314283     42.111234
PC07  -1467.139856  34528.366719 -23921.146981   -621.800785
PC08 -10323.070165  19510.252719  35884.160906    119.351513
PC09 -11018.235929  36548.904485 -18122.762025   -339.672525
PC10   4505.019950  36503.687313 -19790.910904    129.836203
PC11   1339.486245  24625.776032  13125.205101    353.150835
PC12 -11026.517814  25154.015677  -4905.934247    799.176843
PC13  -2317.948581  21805.305699  36174.540487    406.372247
PC14  12300.365078  22700.072170  10538.002040    -54.132217
PC16      0.000000      0.000000      0.000000 999999.999999
PC19 -18792.222949 -20587.251454  -1498.327391   -939.207693
PC20  -5527.995074 -21703.210167 -16652.641720    -56.208367
PC21 -12384.332524   9665.786522  23079.700216   -964.487354
PC22 -22012.568424  -7623.491669  15378.243439   -151.461195
PC23  26404.473925    -58.839575  -9052.598408   -791.497434
PC24  -6795.366980  17312.717618 -20819.799513    780.325993
PC25  14672.784242  11438.648231 -20821.338964    299.536805
PC26 -22840.243403  13234.485842  -9017.364263   -233.308528
PC27  14931.259797 -19848.093601  12694.400257    255.343872
PC28  16872.982251  -2930.210254  22041.192660    193.662107
PC29  -9042.028636 -18542.798985 -18791.764846    226.857867
PC30   4315.504714 -27358.652719  -3307.700856    -14.531959
PC32  12369.386002  -9693.082820 -23045.021797   -552.552860
PC33  18838.129585  20514.909907   1641.301679   -942.856812
PC34  -3299.320251  27313.730404   4739.056283    345.014287
PC35 -16832.591132   3553.030215 -21988.757295    459.570297
PC36 -13713.758762 -12134.193307  21066.133674    -56.534619
PC37  23512.698125 -12436.578787   8490.016057   -931.700042
PC38 -19111.849605  20273.327907  31644.914539    129.854102
PC39 -20484.007675  36982.610283   -694.188732     -6.586840
PC40  -5658.433841  30659.799816 -28246.594863    -51.659304
PC41  22194.008793   8253.460646 -14708.430591   -878.977284
PC42   4002.159087  21194.346860  17737.648910   -467.130474
PC43   8534.812235  19365.711624  18195.008035     56.015374
PC44 -14324.374872  20264.990689 -12807.350122    350.808950
PC45 -26481.693035    315.722124   8740.389312    -62.317330
PC46   5823.679622 -17150.356168  21226.155688   -114.842920
PE02 -26006.589322   1237.865539 -14070.015695     94.232944
PE03 -15888.597340   6496.289505  24109.029920    -86.348664
PE04   5761.126468 -24825.833738 -15047.473746   -301.343871
PE05 -16650.227942 -15378.717442  19037.000657   4709.376195
PE07   7413.461821  28555.225873  -2384.541764    -97.879304
PE08  -6084.485523  24403.635800  15601.487202   -206.463090
PE09  -7340.763427 -28590.007131   2271.819429   -295.979647
PE10   9215.815766 -22541.696325 -16826.345671   -593.387417
PE11  -1064.900763 -18744.004030 -22882.150766   3280.563452
PE12  16984.368423 -22533.650186  -8905.078940   -858.450687
PE13    327.001860  19075.878415  22643.758179    -19.878262
PE14 -20354.583674  -8375.042042 -22387.899240      7.730114
PE15 -17355.696793  22457.408500   8431.394344    -79.645796
PE18  15173.907155  -8264.549800  19119.042649    199.640862
PE19  16405.201763  -3745.462554 -24347.292156   -832.371627
PE21  26959.408725  11750.381898  -3412.691850   -573.396281
PE24 -11655.864202 -18591.462192  19832.309153   -536.625263
PE25 -26803.613195 -11961.712025   3776.100500     -0.657648
PE26  18086.706699   4143.793278  23073.360536    336.431899
PE27  12204.432087  18505.824538 -19627.692125   -246.913711
PE30  -9916.467383  14180.676423 -24028.984073   -816.508743
PE31   9597.418181 -14271.995293  24092.032474    -13.562629
PE33  24619.389548 -12180.707599  11046.089448      5.784219
PE34 -24593.132402  12670.423943 -10517.172749    -88.442639
PE36 -17543.768189  -4589.396937 -23387.774523   -170.459362
PG01   9573.231651 -20396.886459 -14138.269776    165.846523
PG02  14490.272911 -21167.970317  -5892.360127   -502.327050
PG03   5052.268999 -13920.690488 -22190.533132    119.385298
PG04   2410.206258 -24632.302932  -9439.113608    263.541974
PG05 -17048.658750   8374.553354  18429.394390   -157.592710
PG06 -19354.998846   1050.859228 -18132.415887    448.083573
PG07  -4801.716448 -15929.589992  21094.902163    -34.882676
PG08   7323.145222 -19242.676003  16450.801793   -161.607513
PG09  -7360.175980 -25401.047837   2009.519224     55.705963
PG10  23920.903699  11115.511531   4578.962360    -68.939247
PG11 -22701.160082  10028.872799  -9369.366059   -536.208152
PG12  -6141.188181  14008.082239 -21998.469683   -466.881462
PG13 -13296.698112  10158.274032  20369.810900    614.880607
PG14 -21670.293015 -13580.781497   7533.586955    296.008774
PG15  -5151.526217  20112.972698  15956.323219    116.233210
PG16  22232.245026  -1397.437082  14476.334718   -386.131738
PG17 -12405.920483 -18344.681503 -14123.080987    720.104319
PG18   5243.459381  14717.360555  21466.295822   -529.672482
PG19 -14786.876955  -9776.533650 -20077.061970    425.188310
PG20 -25212.050521   1982.762304   7881.834446    392.026384
PG21  16937.094784 -19660.570719  -1552.025965    138.716894
PG22 -24084.163802 -10811.232828    465.662067     49.946902
PG23  15562.267343  15370.063542  15220.006800    133.448479
PG24      0.000000      0.000000      0.000000 999999.999999
PG25   7058.826734  16904.390253 -19658.718415    484.908559
PG26  26121.535458   2660.828134   4999.186803    201.229521
PG28  18052.884094   1546.577449 -19440.795589    -95.845267
PG29   4178.335055  26147.048169   1144.403658   -608.820974
PG30 -14360.364260  -8007.505159  21020.129125   -446.633255
PG31  22236.887715  -6207.100658 -13692.816299   -227.231127
PG32  14864.514600  14674.887459 -16333.610743   -604.300412
PJ02 -28124.544815  14879.325336 -23043.782669     -1.105785
PJ03 -25584.614246  33132.430363     59.001207     -0.149199
PJ04 -24648.427696  27420.077012  26393.134150     76.586790
PR01   6081.264734 -10010.717530 -22658.877022     74.344093
PR02  -6519.389375 -20865.808256 -13038.699917    -22.378374
PR03 -15621.989645 -19719.049078   4055.959905     92.561336
PR04 -15619.306725  -8051.204428  18511.332334    218.979463
PR05  -7433.244232   8092.058326  23033.808194    125.213015
PR07  15817.102265  19463.888213  -4771.862615     73.379606
PR08  15703.657549   7783.518922 -18490.555365    -73.965738
PR09  -1818.439973  11504.631835 -22685.744896    163.846863
PR11  25081.044298     75.626787  -4602.385479   -226.334085
PR12  19535.934071  -8330.387316  14158.879464     35.504354
PR13   4513.431414 -11237.514566  22429.087619    -43.184366
PR14 -16258.919545  -7498.160706  18179.163318     25.933356
PR15 -25311.561607    407.073573   3155.246621     83.189776
PR16 -19728.977774   8242.963099 -13932.029566     22.376897
PR17  -4884.257728 -12483.618397 -21695.197648     51.486321
PR18 -12912.419976   3872.006404 -21645.687968    121.619817
PR19 -15159.434605  16681.326009 -11935.362392   -261.671910
PR20  -7854.052481  22599.099122   8924.167032   -106.636462
PR21   5022.850171  12060.045596  21909.782347    -68.151803
PR22  13683.727630  -4268.653369  21126.527955    102.688372
PR24   6446.462220 -22846.522935  -9328.211476    -39.496274
PR25   4710.460151  12695.262405  21622.878350     30.485569
PR26  15948.758044   8355.661946 -18039.572155 999999.999999
EOF
